NORAD_CAT_ID,OBJECT_NAME,OBJECT_TYPE,EPOCH,MEAN_MOTION,ECCENTRICITY,INCLINATION,RA_OF_ASC_NODE,ARG_OF_PERICENTER,MEAN_ANOMALY,BSTAR,MEAN_MOTION_DOT,MEAN_MOTION_DDOT,TLE_LINE0,TLE_LINE1,TLE_LINE2,SEMIMAJOR_AXIS,PERIOD,APOGEE,PERIGEE,DECAYED
52555.0,STARLINK-3949,PAYLOAD,2022-10-07 10:34:38,15.08848792,0.0001643,53.2187,337.207,64.51,295.6062,0.00051034,7.845e-05,0.0,0 STARLINK-3949,1 52555U 22051Y   22280.44071950  .00007845  00000-0  51034-3 0  9996,2 52555  53.2187 337.2070 0001643  64.5100 295.6062 15.08848792 22851,6917.854,95.437,540.855,538.582,0.0
52555.0,STARLINK-3949,PAYLOAD,2022-10-07 15:20:47,15.08847605,0.0001862,53.2196,336.3177,52.8455,307.2707,0.00040819,6.216e-05,0.0,0 STARLINK-3949,1 52555U 22051Y   22280.63944025  .00006216  00000-0  40819-3 0  9999,2 52555  53.2196 336.3177 0001862  52.8455 307.2707 15.08847605 22886,6917.857,95.437,541.01,538.434,0.0
52555.0,STARLINK-3949,PAYLOAD,2022-10-08 10:25:25,15.08831067,0.0001513,53.2197,332.7477,61.6976,298.4168,-1.5886e-05,-5.41e-06,0.0,0 STARLINK-3949,1 52555U 22051Y   22281.43432664 -.00000541  00000-0 -15886-4 0  9993,2 52555  53.2197 332.7477 0001513  61.6976 298.4168 15.08831067 23078,6917.908,95.438,540.819,538.726,0.0
52555.0,STARLINK-3949,PAYLOAD,2022-10-08 12:00:49,15.08823805,0.0001539,53.2199,332.4508,56.9525,303.1615,7.4224e-06,-1.7e-06,0.0,0 STARLINK-3949,1 52555U 22051Y   22281.50057522 -.00000170  00000-0  74224-5 0  9996,2 52555  53.2199 332.4508 0001539  56.9525 303.1615 15.08823805 23013,6917.93,95.439,540.86,538.73,0.0
52555.0,STARLINK-3949,PAYLOAD,2022-10-08 19:57:44,15.08835172,0.0001579,53.2196,330.9647,50.4197,309.6935,6.1111e-05,6.85e-06,0.0,0 STARLINK-3949,1 52555U 22051Y   22281.83176769  .00000685  00000-0  61111-4 0  9997,2 52555  53.2196 330.9647 0001579  50.4197 309.6935 15.08835172 23066,6917.895,95.438,540.852,538.668,0.0
52555.0,STARLINK-3949,PAYLOAD,2022-10-09 05:30:02,15.08848232,0.0001629999999999,53.2192,329.18,49.6079,310.5055,9.1321e-05,1.166e-05,0.0,0 STARLINK-3949,1 52555U 22051Y   22282.22919791  .00001166  00000-0  91321-4 0  9992,2 52555  53.2192 329.1800 0001630  49.6079 310.5055 15.08848232 23199,6917.855,95.437,540.8480000000002,538.5930000000002,0.0
52555.0,STARLINK-3949,PAYLOAD,2022-10-09 11:51:35,15.08844075,0.0001934,53.219,327.9916,50.619,309.4973,5.3052e-05,5.56e-06,0.0,0 STARLINK-3949,1 52555U 22051Y   22282.49416123  .00000556  00000-0  53052-4 0  9993,2 52555  53.2190 327.9916 0001934  50.6190 309.4973 15.08844075 23168,6917.868,95.437,541.071,538.395,0.0
52555.0,STARLINK-3949,PAYLOAD,2022-10-09 19:48:31,15.08836802,0.0001913,53.2191,326.5044,51.8887,308.2277,-1.664e-05,-5.53e-06,0.0,0 STARLINK-3949,1 52555U 22051Y   22282.82536460 -.00000553  00000-0 -16640-4 0  9998,2 52555  53.2191 326.5044 0001913  51.8887 308.2277 15.08836802 23218,6917.89,95.438,541.0790000000002,538.432,0.0
52555.0,STARLINK-3949,PAYLOAD,2022-10-10 06:56:13,15.08845281,0.0001511,53.2183,324.4228,50.4743,309.6382,0.00031881,4.79e-05,0.0,0 STARLINK-3949,1 52555U 22051Y   22283.28903985  .00004790  00000-0  31881-3 0  9997,2 52555  53.2183 324.4228 0001511  50.4743 309.6382 15.08845281 23358,6917.864000000001,95.437,540.775,538.684,0.0
52555.0,STARLINK-3949,PAYLOAD,2022-10-10 11:42:22,15.0885107,0.000164,53.2181,323.531,46.7278,313.3851,0.00028905,4.317e-05,0.0,0 STARLINK-3949,1 52555U 22051Y   22283.48775886  .00004317  00000-0  28905-3 0  9994,2 52555  53.2181 323.5310 0001640  46.7278 313.3851 15.08851070 23314,6917.847,95.437,540.846,538.577,0.0
52555.0,STARLINK-3949,PAYLOAD,2022-10-10 19:39:18,15.08841446,0.0001715,53.2178,322.0448,48.1481,311.9657,7.733999999999999e-06,-1.65e-06,0.0,0 STARLINK-3949,1 52555U 22051Y   22283.81896055 -.00000165  00000-0  77340-5 0  9990,2 52555  53.2178 322.0448 0001715  48.1481 311.9657 15.08841446 23360,6917.876,95.437,540.927,538.555,0.0
52555.0,STARLINK-3949,PAYLOAD,2022-10-11 11:33:10,15.08818451,0.0001693,53.2178,319.0718,52.4499,307.6647,-0.00023267,-3.987e-05,0.0,0 STARLINK-3949,1 52555U 22051Y   22284.48136967 -.00003987  00000-0 -23267-3 0  9996,2 52555  53.2178 319.0718 0001693  52.4499 307.6647 15.08818451 23538,6917.946,95.439,540.982,538.64,0.0
52555.0,STARLINK-3949,PAYLOAD,2022-10-11 14:43:56,15.088205800000004,0.0001733999999999,53.2175,318.4765,51.5341,308.5807,6.9047e-05,8.1e-06,0.0,0 STARLINK-3949,1 52555U 22051Y   22284.61385237  .00000810  00000-0  69047-4 0  9994,2 52555  53.2175 318.4765 0001734  51.5341 308.5807 15.08820580 23480,6917.94,95.439,541.004,538.605,0.0
52555.0,STARLINK-3949,PAYLOAD,2022-10-12 11:23:57,15.08842536,0.0001861,53.2175,314.6105,51.6688,308.4471,0.00052941,8.148e-05,0.0,0 STARLINK-3949,1 52555U 22051Y   22285.47497610  .00008148  00000-0  52941-3 0  9994,2 52555  53.2175 314.6105 0001861  51.6688 308.4471 15.08842536 23685,6917.873000000001,95.437,541.025,538.45,0.0
52555.0,STARLINK-3949,PAYLOAD,2022-10-13 08:03:59,15.08840815,0.0001943,53.2174,310.7444,54.135,305.9822,0.00035242,5.325e-05,0.0,0 STARLINK-3949,1 52555U 22051Y   22286.33610133  .00005325  00000-0  35242-3 0  9996,2 52555  53.2174 310.7444 0001943  54.1350 305.9822 15.08840815 23817,6917.878000000002,95.438,541.087,538.399,0.0
52555.0,STARLINK-3949,PAYLOAD,2022-10-13 19:11:41,15.08838967,0.000187,53.2179,308.6602,61.7492,298.3689,0.00016379,2.319e-05,0.0,0 STARLINK-3949,1 52555U 22051Y   22286.79978188  .00002319  00000-0  16379-3 0  9993,2 52555  53.2179 308.6602 0001870  61.7492 298.3689 15.08838967 23815,6917.884,95.438,541.0419999999998,538.455,0.0
52555.0,STARLINK-3949,PAYLOAD,2022-10-14 11:05:32,15.08847012,0.000183,53.2181,305.6895,46.3884,313.726,0.00022257,3.257e-05,0.0,0 STARLINK-3949,1 52555U 22051Y   22287.46217896  .00003257  00000-0  22257-3 0  9994,2 52555  53.2181 305.6895 0001830  46.3884 313.7260 15.08847012 23918,6917.859,95.437,540.99,538.4580000000002,0.0
52555.0,STARLINK-3949,PAYLOAD,2022-10-14 12:40:55,15.0884856,0.0001846,53.2182,305.3928,46.8354,313.2792,0.00025043,3.701e-05,0.0,0 STARLINK-3949,1 52555U 22051Y   22287.52841833  .00003701  00000-0  25043-3 0  9995,2 52555  53.2182 305.3928 0001846  46.8354 313.2792 15.08848560 23999,6917.854,95.437,540.996,538.442,0.0
52555.0,STARLINK-3949,PAYLOAD,2022-10-15 12:31:42,15.08843322,0.0002011,53.2185,300.9318,46.9476,313.1684,5.8809e-05,6.48e-06,0.0,0 STARLINK-3949,1 52555U 22051Y   22288.52201656  .00000648  00000-0  58809-4 0  9993,2 52555  53.2185 300.9318 0002011  46.9476 313.1684 15.08843322 24145,6917.87,95.437,541.126,538.344,0.0
52555.0,STARLINK-3949,PAYLOAD,2022-10-16 10:47:05,15.08842328,0.0001815,53.2181,296.769,49.8636,310.2515,2.8584e-05,1.67e-06,0.0,0 STARLINK-3949,1 52555U 22051Y   22289.44937417  .00000167  00000-0  28584-4 0  9999,2 52555  53.2181 296.7690 0001815  49.8636 310.2515 15.08842328 24211,6917.873000000001,95.437,540.994,538.4830000000002,0.0
52555.0,STARLINK-3949,PAYLOAD,2022-10-16 17:08:38,15.08832288,0.0001844,53.218,295.5796,50.3442,309.7713,-0.00014715,-2.629e-05,0.0,0 STARLINK-3949,1 52555U 22051Y   22289.71433886 -.00002629  00000-0 -14715-3 0  9997,2 52555  53.2180 295.5796 0001844  50.3442 309.7713 15.08832288 24259,6917.904,95.438,541.045,538.493,0.0
52555.0,STARLINK-3949,PAYLOAD,2022-10-17 02:40:57,15.08838305,0.0001844999999999,53.2182,293.7943,49.0917,311.0235,-1.282e-05,-4.92e-06,0.0,0 STARLINK-3949,1 52555U 22051Y   22290.11177868 -.00000492  00000-0 -12820-4 0  9990,2 52555  53.2182 293.7943 0001845  49.0917 311.0235 15.08838305 24316,6917.886,95.438,541.0269999999998,538.474,0.0
52555.0,STARLINK-3949,PAYLOAD,2022-10-17 18:34:48,15.08846907,0.0001751999999999,53.2179,290.8215,51.4868,308.6282,0.00022475,3.291e-05,0.0,0 STARLINK-3949,1 52555U 22051Y   22290.77417441  .00003291  00000-0  22475-3 0  9990,2 52555  53.2179 290.8215 0001752  51.4868 308.6282 15.08846907 24413,6917.859,95.437,540.936,538.512,0.0
52555.0,STARLINK-3949,PAYLOAD,2022-10-18 04:07:07,15.08837759,0.0001706,53.2182,289.0378,48.6299,311.4840000000001,0.0001094,1.453e-05,0.0,0 STARLINK-3949,1 52555U 22051Y   22291.17161836  .00001453  00000-0  10940-3 0  9991,2 52555  53.2182 289.0378 0001706  48.6299 311.4840 15.08837759 24543,6917.887,95.438,540.932,538.572,0.0
52555.0,STARLINK-3949,PAYLOAD,2022-10-18 10:28:40,15.08837515,0.0001959,53.2183,287.8507,37.473,322.6399,7.7006e-05,9.38e-06,0.0,0 STARLINK-3949,1 52555U 22051Y   22291.43657913  .00000938  00000-0  77006-4 0  9990,2 52555  53.2183 287.8507 0001959  37.4730 322.6399 15.08837515 24510,6917.888000000001,95.438,541.1080000000002,538.398,0.0
52555.0,STARLINK-3949,PAYLOAD,2022-10-18 18:25:37,15.08829131,0.0001816,53.2192,286.3617,48.9643,311.1506,1.0535e-05,-1.2e-06,0.0,0 STARLINK-3949,1 52555U 22051Y   22291.76778975 -.00000120  00000-0  10535-4 0  9996,2 52555  53.2192 286.3617 0001816  48.9643 311.1506 15.08829131 24639,6917.9140000000025,95.438,541.035,538.5219999999998,0.0
52555.0,STARLINK-3949,PAYLOAD,2022-10-18 20:01:00,15.08830768,0.0001911999999999,53.2193,286.0644,47.9785,312.137,1.6286e-05,-2.9e-07,0.0,0 STARLINK-3949,1 52555U 22051Y   22291.83402959 -.00000029  00000-0  16286-4 0  9997,2 52555  53.2193 286.0644 0001912  47.9785 312.1370 15.08830768 24571,6917.909000000002,95.438,541.096,538.451,0.0
52555.0,STARLINK-3949,PAYLOAD,2022-10-19 02:22:32,15.08836518,0.0001738,53.2181,284.8748,51.7961,308.3188,0.00010141,1.326e-05,0.0,0 STARLINK-3949,1 52555U 22051Y   22292.09898339  .00001326  00000-0  10141-3 0  9990,2 52555  53.2181 284.8748 0001738  51.7961 308.3188 15.08836518 24689,6917.891,95.438,540.9580000000002,538.554,0.0
52555.0,STARLINK-3949,PAYLOAD,2022-10-19 08:44:04,15.08842662,0.0001849,53.218,283.6857,49.3655,310.7498,0.0001511,2.118e-05,0.0,0 STARLINK-3949,1 52555U 22051Y   22292.36394178  .00002118  00000-0  15110-3 0  9993,2 52555  53.2180 283.6857 0001849  49.3655 310.7498 15.08842662 24657,6917.871999999999,95.437,541.016,538.4580000000002,0.0
